#dP2021  2 28  0  0  0.00000000      96 __u+U ITR00 FIT  IAC
## 2147      0.00000000   900.00000000 59273 0.0000000000000
+  127   C01C02C03C04C05C06C07C08C09C10C11C12C13C14C16C19C20
+        C21C22C23C24C25C26C27C28C29C30C32C33C34C35C36C37C38
+        C39C40C41C42C43C44C45C46C60E01E02E03E04E05E07E08E09
+        E11E12E13E14E15E18E19E21E24E25E26E27E30E31E33E36G01
+        G02G03G04G05G06G07G08G09G10G11G12G13G14G15G16G17G18
+        G19G20G21G22G23G24G25G26G27G28G29G30G31G32J01J02J03
+        J07R01R02R03R04R05R06R07R08R09R10R11R12R13R14R15R16
+        R17R18R19R20R21R22R23R24  0  0  0  0  0  0  0  0  0
++        13 13 13 13 13  9  9 10  9  9  9  9  9  9  9  8  8
++         8  8  8  8  8  8  8  8  8  8  9  8  8  9  9  9 10
++         9 10  9  9  9  9  9  9 13  5  5  4  5  4  4  4  5
++         5  5  5  5  5  5  5  5  4  4  4  5  5  5  5  5  4
++         4  4  4  4  4  4  4  4  4  5  4  4  4  4  4  3  4
++         3  4  4  4  4  4  4  4  4  4  4  4  4  4  9  9  9
++        13  8  6  6  6  5 13  6  6  6  0  8  6  8  6  6  8
++         6  6  8  8  6  8 13  6  0  0  0  0  0  0  0  0  0
%c M  cc GPS ccc cccc cccc cccc cccc ccccc ccccc ccccc ccccc
%c cc cc ccc ccc cccc cccc cccc cccc ccccc ccccc ccccc ccccc
%f  0.0000000  0.000000000  0.00000000000  0.000000000000000
%f  0.0000000  0.000000000  0.00000000000  0.000000000000000
%i    0    0    0    0      0      0      0      0         0
%i    0    0    0    0      0      0      0      0         0
/* INFORMATION & ANALYSIS CENTER (IAC)            RAPID DATA
/* S/V CLOCKS ARE ALIGNED TO GNSS TIME                      
/* G:C1WC2W R:C1PC2P E:C1XC5X C:C2IC6I J:C1CC2S             
/* PCV:IGS14_2134 OL/AL:FES2004  NONE     YN ORB:CoN CLK:CoN
*  2021 02 28 15 15  0.00000000
PC01 -34320.047721  24461.680305   -174.618215   -698.816384
PC02   4290.920615  41960.996241    550.736139    476.607722
PC03 -14816.426127  39444.390434   1038.083640   -426.789562
PC04 -39616.776820  14405.087354    526.896058    -44.024829
PC05  21837.319407  36066.114644    343.007499   -847.800498
PC06 -24308.575604  28203.440257 -19775.705391    133.143190
PC07 -12028.231448  36522.850245 -16432.997910   -371.565377
PC08  -9447.101518  19286.955489  36406.281915   -906.867842
PC09 -10124.566205  27907.810055 -29821.781484    701.530606
PC10  -1961.722053  41603.789793  -4579.868268    -79.070309
PC11  18709.772510   7285.955618  19461.258821   -896.364268
PC12    -24.693390  15935.020646  22945.652824    830.476102
PC13   5484.363174  27039.867200  32069.358716    160.749966
PC14  11497.447795  15357.366180 -20219.223926    284.929363
PC16 -20795.440888  28749.159280 -22863.699087   -714.376541
PC19 -15214.695405  -4891.720827  22904.948404    744.536675
PC20  -6775.246285 -22288.846907  15402.687026   -921.497542
PC21  -6192.655347  27146.642028   1713.746255   -860.736486
PC22 -15103.117371  15820.847189  17320.359199   -897.238468
PC23  17195.563288  -5276.498825  21334.848339   -876.032141
PC24  15797.974144  21513.073818  -8213.002774   -770.871623
PC25  23875.581367  10520.696722   9925.424836   -949.646140
PC26    357.179752  19122.625018 -20343.466470    942.049912
PC27  10533.461788 -17419.834830 -19093.168212    490.896486
PC28  25023.275537 -11557.186290  -4361.517640   -104.049064
PC29 -24785.118516   -118.696288 -12835.172129    358.622190
PC30 -10041.456399 -12923.917364 -22607.544966    448.658316
PC32   5963.084767 -27213.753798  -1671.610217   -902.595754
PC33  15239.376034   4872.475524 -22854.773480   -953.368996
PC34  10683.336626  12652.107657  22452.683209   -729.636132
PC35 -24752.768373  12275.364661   4065.673481   -396.613807
PC36 -23603.711528 -11334.906127  -9624.573957   -748.483111
PC37    968.525060 -18686.790015  20706.831111   -869.901778
PC38  -7849.723392  22727.947323  34674.609027    132.894689
PC39 -18765.895712  30107.404823 -22884.306072     28.916933
PC40  -7533.205881  40724.016467  -7502.425107    136.192646
PC41  15122.581702 -15648.624481 -17414.811354   -930.020475
PC42   6356.201378  22744.677274 -14812.346943   -902.560467
PC43  24582.310806    659.874351  13162.624284   -618.430354
PC44 -10188.470090  17863.038822  18877.233544 999999.999999
PC45 -17037.883711   5321.238777 -21446.469746    374.308112
PC46 -16473.466173 -21233.489739   7440.200551    384.410771
PC60   7270.359548  41510.363362   1363.079469     -0.946369
PE01   8182.383654 -18415.058365  21674.009660  -1055.718984
PE02  -8093.065788  18538.986662 -21622.402631    201.695939
PE03 -18275.337408  23270.693740    542.471242   -403.706111
PE04   3822.882761 -24253.032709  16538.077314   -719.241502
PE05 -22218.728188   8612.902124  17560.407681   -300.842801
PE07  13162.725318  10911.964918 -24157.844424   -506.743256
PE08  -3502.513799  24099.728107 -16817.971906   6040.200927
PE09 -13205.168596 -10632.775435  24267.573480   5750.302973
PE11 -23891.173586 -11554.946651 -13131.739178   6263.352421
PE12  -4105.852502 -16487.373526 -24233.328589   5333.479796
PE13  23617.519607  11633.542757  13530.854381    412.830793
PE14  14955.446190 -24277.409407 -12553.351225  -1345.681542
PE15   4172.162642  16404.588861  24294.625424    827.029923
PE18 -19453.655293  16365.521339   2093.436669  -1471.258688
PE19  19376.481176 -22207.530229  -2723.215421    215.180608
PE21  17747.052759   1203.534808  23655.663537   -650.995523
PE24 -17061.380717 -21325.020678 -11394.225335   -767.882641
PE25 -17791.289036  -1386.437137 -23612.387500   -527.409641
PE26  29010.493301   -334.760026  -5853.531835   2095.739162
PE27  17356.224229  20791.364604  11961.372932     20.294111
PE30   6035.509522  28020.104849  -7446.593582   3144.544998
PE31  -6761.083809 -28025.554715   6692.166282   -478.723234
PE33  17686.489144 -11511.435991 -20739.649955   -466.098997
PE36 -29148.334306    -16.767287   5193.700140    434.517253
PG01 -20388.935976 -14355.999751  -9873.750055    751.643203
PG02  -1803.916241  15508.402362  22146.877689   -581.491822
PG03 -12844.103941 -19125.124002  13231.345649    -95.255484
PG04 -11376.661436 -10300.635459  21685.601055   -183.278432
PG05   3404.437672  26005.640282   3364.521479    -34.933033
PG06 -15570.910015   8542.821062  19832.394794     -1.241253
PG07 -25715.629147  -6475.083060  -3704.389848     74.369593
PG08  -4779.730077 -15230.049215 -21171.723602    -11.980467
PG09 -19849.585740    957.150337  17570.689940   -327.024577
PG10  12757.404519  -9917.310018 -20915.991825    -71.189445
PG11 -14896.867159 -12262.926058 -18561.771464    -11.921884
PG12   9368.508220  22782.461696   9886.184102     -7.425337
PG13  -6328.567977  18750.293024 -17789.493082    102.410080
PG14 -13851.586806   8199.436507 -21136.434207     99.144116
PG15   7341.225382  15050.979032 -20912.273198   -166.316249
PG16   1001.797733 -25746.292239   5087.788419   -286.944306
PG17 -22196.737677  14086.909293  -3327.750985    401.869835
PG18  25222.260261   4030.552810  -7396.186545    349.123638
PG19 -19939.243480  16957.808075   3910.886449    -32.500668
PG20  16871.037878   3025.707838 -20401.540452    524.480169
PG21 -15049.145950 -15244.236727 -15251.838285     99.358348
PG22 -10701.109235 -23955.644551   4891.078147   -670.157652
PG23  15665.191439   2207.307345 -21361.299876    118.279207
PG24  16813.540973  15453.667764 -14121.934898      1.725561
PG25  15363.017712  10297.956752  18905.384894     89.601885
PG26   6162.196113 -21017.117698  14785.203478     51.446302
PG27   7773.508108 -20246.679247 -15235.714479    -85.120679
PG28 -12597.059365  11279.863059 -19974.137686    609.022593
PG29  19675.786876    139.320208  17818.254957   -303.346453
PG30 -22027.485545   3098.642715 -14631.367310   -391.565398
PG31  13682.790586 -10197.602658  20385.527865   -102.814848
PG32  21040.936494 -15811.495307  -2699.708621     20.125067
PJ01 -30313.452178  27275.051407  15657.426067 999999.999999
PJ02 -20545.615591  21284.088391 -25562.597103      2.571758
PJ03 -30376.662242  27799.065828  14099.456405     -1.176086
PJ07 -25391.233820  33673.627892      5.839193      0.070467
PR01 -13228.062894   7515.524931  20472.966786     75.688286
PR02 -10829.596799  22852.000739   3620.235411    468.828082
PR03  -1585.574816  21678.133324 -13350.366587     31.549042
PR04   8228.583908   8178.215160 -22690.080372     75.833333
PR05  13520.139856  -9766.621899 -19279.096771     67.297572
PR06   9792.491991 -23396.879652  -2602.355228    193.532929
PR07   1125.668678 -21290.650880  14007.601553    -42.521069
PR08  -8410.184428  -8148.981437  22714.117522    -57.641814
PR09   2467.342058 -13615.090571  21456.082257    -19.471429
PR10 -10589.090700 -20643.772054  10500.518954 999999.999999
PR11 -18157.250783 -16307.594443  -7425.927880      2.744911
PR12 -14514.073457  -2109.559205 -20842.059654    208.724254
PR13  -2709.133935  13031.165279 -21782.527903    -51.379542
PR14  11048.293800  20898.266677  -9568.713787     61.488045
PR15  17992.033864  16315.087938   7820.940070    105.154335
PR16  14300.144749    969.098937  21106.329192    -11.890326
PR17   3075.218635  10194.071420  23193.138979    403.976462
PR18  19197.228189   4518.702532  16160.783178     68.185527
PR19  25350.509062  -2549.097514   1213.610413   -133.866567
PR20  16163.652553  -9630.270580 -17185.639547    -44.169279
PR21  -4256.913788  -9891.706091 -23117.507898   -190.996081
PR22 -20083.805234  -4046.464865 -15274.581933   -100.240572
PR23 -23984.078575   6172.559489   6122.233911    368.986699
PR24 -15374.763696  10356.201280  17539.673337     33.245710
EOF
